THOR 7                  
1 40613U 15022A   17345.77764506 -.00000014  00000-0  00000-0 0  9992
2 40613   0.0449 139.8568 0002602 123.3221  96.7967  1.00272439  9648
